NORAD_CAT_ID,OBJECT_NAME,OBJECT_TYPE,EPOCH,MEAN_MOTION,ECCENTRICITY,INCLINATION,RA_OF_ASC_NODE,ARG_OF_PERICENTER,MEAN_ANOMALY,BSTAR,MEAN_MOTION_DOT,MEAN_MOTION_DDOT,TLE_LINE0,TLE_LINE1,TLE_LINE2,SEMIMAJOR_AXIS,PERIOD,APOGEE,PERIGEE,DECAYED
49152.0,STARLINK-3081,PAYLOAD,2021-10-06 22:00:00,15.69744059,0.000363,70.0025,62.7804,285.2136,346.6075,0.00017471,0.00020692,0.0,0 STARLINK-3081,1 49152U 21082Y   21279.91667824  .00020692  00000-0  17471-3 0  9990,2 49152  70.0025  62.7804 0003630 285.2136 346.6075 15.69744059  3737,6737.766,91.735,362.077,357.185,0.0
49152.0,STARLINK-3081,PAYLOAD,2021-10-07 04:00:00,15.69746071,0.0003542,70.0028,62.0777,281.2562,322.9282,0.000436,0.00052155,0.0,0 STARLINK-3081,1 49152U 21082Y   21280.16667824  .00052155  00000-0  43600-3 0  9991,2 49152  70.0028  62.0777 0003542 281.2562 322.9282 15.69746071  4850,6737.761,91.735,362.012,357.23900000000015,0.0
49152.0,STARLINK-3081,PAYLOAD,2021-10-07 14:00:01,15.69828425,0.0003571,70.0029,60.907,282.365,155.7469,-0.00059401,-0.00070762,0.0,0 STARLINK-3081,1 49152U 21082Y   21280.58334491 -.00070762  00000-0 -59401-3 0  9990,2 49152  70.0029  60.9070 0003571 282.3650 155.7469 15.69828425  3735,6737.525,91.73,361.796,356.9840000000001,0.0
49152.0,STARLINK-3081,PAYLOAD,2021-10-07 20:00:01,15.69783305,0.0003559,70.0024,60.2026,287.7929,122.7239,-0.00026686,-0.00031994,0.0,0 STARLINK-3081,1 49152U 21082Y   21280.83334491 -.00031994  00000-0 -26686-3 0  9991,2 49152  70.0024  60.2026 0003559 287.7929 122.7239 15.69783305  4959,6737.654,91.732,361.917,357.121,0.0
49152.0,STARLINK-3081,PAYLOAD,2021-10-07 22:00:00,15.6979406,0.0003502,70.002,59.97,286.8389,234.4536,-0.00083247,-0.00098616,0.0,0 STARLINK-3081,1 49152U 21082Y   21280.91667824 -.00098616  00000-0 -83247-3 0  9999,2 49152  70.0020  59.9700 0003502 286.8389 234.4536 15.69794060  3698,6737.623000000001,91.732,361.848,357.129,0.0
49152.0,STARLINK-3081,PAYLOAD,2021-10-08 06:00:00,15.69657142,0.0003565,70.0017,59.0332,280.7528,323.6913,0.00082049,0.0009852,0.0,0 STARLINK-3081,1 49152U 21082Y   21281.25001157  .00098520  00000-0  82049-3 0  9999,2 49152  70.0017  59.0332 0003565 280.7528 323.6913 15.69657142  5021,6738.015,91.74,362.282,357.478,0.0
49152.0,STARLINK-3081,PAYLOAD,2021-10-08 14:00:01,15.69731344,0.0003687,70.0015,58.0965,282.9707,44.53,-8.704200000000001e-05,-0.00010583,0.0,0 STARLINK-3081,1 49152U 21082Y   21281.58334491 -.00010583  00000-0 -87042-4 0  9999,2 49152  70.0015  58.0965 0003687 282.9707  44.5300 15.69731344  3695,6737.803000000001,91.735,362.152,357.18300000000005,0.0
49152.0,STARLINK-3081,PAYLOAD,2021-10-08 22:00:00,15.69739542,0.0003781,70.0011,57.1596,286.4135,124.1759,2.8735e-05,3.218e-05,0.0,0 STARLINK-3081,1 49152U 21082Y   21281.91667824  .00003218  00000-0  28735-4 0  9994,2 49152  70.0011  57.1596 0003781 286.4135 124.1759 15.69739542  5121,6737.779,91.735,362.192,357.097,0.0
49152.0,STARLINK-3081,PAYLOAD,2021-10-09 04:00:00,15.69746619,0.0003487,70.0001,56.4481,281.5322,101.1957,1.0511e-05,1.043e-05,0.0,0 STARLINK-3081,1 49152U 21082Y   21282.16667824  .00001043  00000-0  10511-4 0  9999,2 49152  70.0001  56.4481 0003487 281.5322 101.1957 15.69746619  5164,6737.759,91.735,361.973,357.275,0.0
49152.0,STARLINK-3081,PAYLOAD,2021-10-09 06:00:00,15.69747206,0.0003473,69.9999,56.214,281.6688,211.8404,1.3115e-06,-5.6e-07,0.0,0 STARLINK-3081,1 49152U 21082Y   21282.25001157 -.00000056  00000-0  13115-5 0  9998,2 49152  69.9999  56.2140 0003473 281.6688 211.8404 15.69747206  3716,6737.757,91.735,361.962,357.282,0.0
49152.0,STARLINK-3081,PAYLOAD,2021-10-09 12:00:00,15.6989342,0.0003585,70.0008,55.517,283.4096,182.6462,-0.0024680999999999,-0.0028674,0.0,0 STARLINK-3081,1 49152U 21082Y   21282.50001157 -.00286740  00000-0 -24681-2 0  9990,2 49152  70.0008  55.5170 0003585 283.4096 182.6462 15.69893420  5218,6737.339,91.726,361.619,356.789,0.0
49152.0,STARLINK-3081,PAYLOAD,2021-10-09 20:00:01,15.69703386,0.0003575,70.0011,54.5832,288.0647,261.1766,0.0004886,0.00058413,0.0,0 STARLINK-3081,1 49152U 21082Y   21282.83334491  .00058413  00000-0  48860-3 0  9994,2 49152  70.0011  54.5832 0003575 288.0647 261.1766 15.69703386  5264,6737.8830000000025,91.737,362.156,357.339,0.0
49152.0,STARLINK-3081,PAYLOAD,2021-10-09 22:00:00,15.69737571,0.0003571,70.001,54.3489,287.7661,12.2388,-2.0037e-05,-2.602e-05,0.0,0 STARLINK-3081,1 49152U 21082Y   21282.91667824 -.00002602  00000-0 -20037-4 0  9990,2 49152  70.0010  54.3489 0003571 287.7661  12.2388 15.69737571  3724,6737.785,91.735,362.056,357.244,0.0
49152.0,STARLINK-3081,PAYLOAD,2021-10-10 04:00:01,15.69704403,0.0003462,70.0014,53.6463,283.4561,348.9542,0.00059918,0.00071798,0.0,0 STARLINK-3081,1 49152U 21082Y   21283.16668981  .00071798  00000-0  59918-3 0  9992,2 49152  70.0014  53.6463 0003462 283.4561 348.9542 15.69704403  5320,6737.88,91.737,362.077,357.412,0.0
49152.0,STARLINK-3081,PAYLOAD,2021-10-10 14:00:01,15.69797456,0.0003717,70.0017,52.4753,284.6899,181.5434,-0.00095486,-0.00112915,0.0,0 STARLINK-3081,1 49152U 21082Y   21283.58334491 -.00112915  00000-0 -95486-3 0  9993,2 49152  70.0017  52.4753 0003717 284.6899 181.5434 15.69797456  3691,6737.613,91.732,361.983,356.974,0.0
49152.0,STARLINK-3081,PAYLOAD,2021-10-10 20:00:01,15.69705789,0.0003904,70.0014,51.7724,286.981,151.6209,0.00020536,0.00024332,0.0,0 STARLINK-3081,1 49152U 21082Y   21283.83334491  .00024332  00000-0  20536-3 0  9998,2 49152  70.0014  51.7724 0003904 286.9810 151.6209 15.69705789  5423,6737.876,91.737,362.371,357.11,0.0
49152.0,STARLINK-3081,PAYLOAD,2021-10-10 22:00:01,15.69726108,0.0003892,70.0012,51.5383,286.285,263.1482,-0.00015783,-0.00018995,0.0,0 STARLINK-3081,1 49152U 21082Y   21283.91668981 -.00018995  00000-0 -15783-3 0  9999,2 49152  70.0012  51.5383 0003892 286.2850 263.1482 15.69726108  3713,6737.818,91.736,362.305,357.06,0.0
49152.0,STARLINK-3081,PAYLOAD,2021-10-11 14:00:01,15.69759353,0.0003928,70.0011,49.6647,284.6136,70.9659,2.6069e-05,2.902e-05,0.0,0 STARLINK-3081,1 49152U 21082Y   21284.58334491  .00002902  00000-0  26069-4 0  9998,2 49152  70.0011  49.6647 0003928 284.6136  70.9659 15.69759353  3686,6737.723000000001,91.734,362.234,356.941,0.0
49152.0,STARLINK-3081,PAYLOAD,2021-10-11 22:00:00,15.6979716,0.0003893,70.0007,48.7276,288.0598,150.6457,-0.00031628,-0.00037878,0.0,0 STARLINK-3081,1 49152U 21082Y   21284.91667824 -.00037878  00000-0 -31628-3 0  9992,2 49152  70.0007  48.7276 0003893 288.0598 150.6457 15.69797160  3680,6737.614000000001,91.732,362.102,356.856,0.0
49152.0,STARLINK-3081,PAYLOAD,2021-10-12 04:00:00,15.69750807,0.0003765,70.001,48.0247,282.838,128.2562,-3.3956e-05,-4.264e-05,0.0,0 STARLINK-3081,1 49152U 21082Y   21285.16667824 -.00004264  00000-0 -33956-4 0  9990,2 49152  70.0010  48.0247 0003765 282.8380 128.2562 15.69750807  5636,6737.746999999999,91.734,362.149,357.075,0.0
49152.0,STARLINK-3081,PAYLOAD,2021-10-12 14:00:01,15.69760099,0.0003808,70.0012,46.8535,286.0451,318.9666,-4.6437e-05,-5.755e-05,0.0,0 STARLINK-3081,1 49152U 21082Y   21285.58334491 -.00005755  00000-0 -46437-4 0  9991,2 49152  70.0012  46.8535 0003808 286.0451 318.9666 15.69760099  3687,6737.72,91.734,362.151,357.02,0.0
49152.0,STARLINK-3081,PAYLOAD,2021-10-12 20:00:01,15.69783611,0.0003966,70.0009,46.1506,288.2042,289.1754,-0.00047387,-0.0005649,0.0,0 STARLINK-3081,1 49152U 21082Y   21285.83334491 -.00056490  00000-0 -47387-3 0  9995,2 49152  70.0009  46.1506 0003966 288.2042 289.1754 15.69783611  5739,6737.653,91.732,362.19,356.846,0.0
49152.0,STARLINK-3081,PAYLOAD,2021-10-12 22:00:01,15.69781868,0.0003955,70.0008,45.9164,287.5305,40.703,-0.00061102,-0.00072634,0.0,0 STARLINK-3081,1 49152U 21082Y   21285.91668981 -.00072634  00000-0 -61102-3 0  9997,2 49152  70.0008  45.9164 0003955 287.5305  40.7030 15.69781868  3689,6737.658,91.732,362.18800000000016,356.858,0.0
49152.0,STARLINK-3081,PAYLOAD,2021-10-13 04:00:00,15.69703323,0.0003936,70.0009,45.2137,283.2774,17.265,0.00094203,0.00113573,0.0,0 STARLINK-3081,1 49152U 21082Y   21286.16667824  .00113573  00000-0  94203-3 0  9994,2 49152  70.0009  45.2137 0003936 283.2774  17.2650 15.69703323  5796,6737.8830000000025,91.737,362.4,357.096,0.0
49152.0,STARLINK-3081,PAYLOAD,2021-10-13 12:00:00,15.6981314,0.0003992,70.0009,44.2771,284.7643,98.8736,-0.00092582,-0.00109609,0.0,0 STARLINK-3081,1 49152U 21082Y   21286.50001157 -.00109609  00000-0 -92582-3 0  9998,2 49152  70.0009  44.2771 0003992 284.7643  98.8736 15.69813140  5847,6737.569,91.731,362.12300000000016,356.744,0.0
49152.0,STARLINK-3081,PAYLOAD,2021-10-13 14:00:01,15.69789027,0.0003987,70.0007,44.0429,286.6266,207.8101,-0.00075791,-0.00089888,0.0,0 STARLINK-3081,1 49152U 21082Y   21286.58334491 -.00089888  00000-0 -75791-3 0  9995,2 49152  70.0007  44.0429 0003987 286.6266 207.8101 15.69789027  3683,6737.638000000001,91.732,362.189,356.816,0.0
49152.0,STARLINK-3081,PAYLOAD,2021-10-13 22:00:01,15.69751434,0.0003982,70.0003,43.1054,288.1095,289.5155,-0.0010434,-0.00122993,0.0,0 STARLINK-3081,1 49152U 21082Y   21286.91668981 -.00122993  00000-0 -10434-2 0  9993,2 49152  70.0003  43.1054 0003982 288.1095 289.5155 15.69751434  3660,6737.745,91.734,362.293,356.927,0.0
49152.0,STARLINK-3081,PAYLOAD,2021-10-14 04:00:00,15.69356851,0.0003845,69.9999,42.3968,289.3075,260.6696,0.0029363,0.00359947,0.0,0 STARLINK-3081,1 49152U 21082Y   21287.16667824  .00359947  00000-0  29363-2 0  9996,2 49152  69.9999  42.3968 0003845 289.3075 260.6696 15.69356851  5942,6738.875,91.757,363.331,358.148,0.0
49152.0,STARLINK-3081,PAYLOAD,2021-10-14 14:00:01,15.69739899,0.0003835,70.001,41.2314,287.5109,96.3041,0.0001085999999999,0.00012768,0.0,0 STARLINK-3081,1 49152U 21082Y   21287.58335648  .00012768  00000-0  10860-3 0  9998,2 49152  70.0010  41.2314 0003835 287.5109  96.3041 15.69739899  3683,6737.778,91.735,362.227,357.059,0.0
